GLOBALSTAR M045         
1 25676U 99019A   25277.68588997 -.00000053  00000+0  35913-3 0  9999
2 25676  51.9998 353.1741 0000738 104.6515  62.0576 12.27065672206836
GLOBALSTAR M019         
1 25677U 99019B   25276.62273265 -.00000139  00000+0 -51336-3 0  9995
2 25677  51.9853 134.2006 0001351 138.4036 255.8585 12.13877054198319
GLOBALSTAR M044         
1 25678U 99019C   25277.76059083 -.00000050  00000+0  47133-3 0  9993
2 25678  51.9948  96.1036 0005270 247.9048 125.2697 11.90260651184375
GLOBALSTAR M042         
1 25679U 99019D   25277.81353917 -.00000023  00000+0  65387-3 0  9994
2 25679  51.9993 101.4733 0003377 148.6724 224.9920 12.22088887198662
GLOBALSTAR M025         
1 25770U 99031A   25277.67988169 -.00000073  00000+0 -17428-3 0  9996
2 25770  51.9805 265.6247 0002271 332.9038 198.5010 11.22558311494003
GLOBALSTAR M049         
1 25771U 99031B   25277.82467603 -.00000140  00000+0 -25841-2 0  9991
2 25771  51.9887 305.5650 0002700 202.4178 157.6501 11.12120766129621
GLOBALSTAR M047         
1 25772U 99031C   25277.73906623 -.00000050  00000+0  55621-3 0  9991
2 25772  51.9831 292.2610 0016491  90.6440 269.6255 11.31930123483518
GLOBALSTAR M052         
1 25773U 99031D   25277.89192837 -.00000090  00000+0 -79493-3 0  9991
2 25773  51.9882  52.5357 0002422  13.8013 164.7516 11.15060966490741
